IRIDIUM 102
1 24794U 97020B   24280.50000000  .00000067  00000+0  16962-4 0  9992
2 24794  86.3945  54.2881 0002341  89.5678 270.5755 14.34218475456789
IRIDIUM 106
1 24840U 97030C   24280.50000000  .00000067  00000+0  16962-4 0  9993
2 24840  86.3945 123.4567 0002341 123.4567 236.5432 14.34218475567890
